[{"OBJECT_NAME":"STARLINK-31351","OBJECT_ID":"2024-031H","EPOCH":"2026-03-09T22:44:15.678816","MEAN_MOTION":15.30174376,"ECCENTRICITY":0.00010538,"INCLINATION":53.1609,"RA_OF_ASC_NODE":295.4245,"ARG_OF_PERICENTER":99.3057,"MEAN_ANOMALY":260.8063,"EPHEMERIS_TYPE":0,"CLASSIFICATION_TYPE":"U","NORAD_CAT_ID":58972,"ELEMENT_SET_NO":999,"REV_AT_EPOCH":11656,"BSTAR":-2.4440059e-5,"MEAN_MOTION_DOT":-1.082e-5,"MEAN_MOTION_DDOT":0},{"OBJECT_NAME":"SL-3 R\/B","OBJECT_ID":"1982-027B","EPOCH":"2026-03-09T22:44:40.208640","MEAN_MOTION":15.28335844,"ECCENTRICITY":0.00065199,"INCLINATION":81.188,"RA_OF_ASC_NODE":37.4466,"ARG_OF_PERICENTER":276.581,"MEAN_ANOMALY":83.4683,"EPHEMERIS_TYPE":0,"CLASSIFICATION_TYPE":"U","NORAD_CAT_ID":13121,"ELEMENT_SET_NO":999,"REV_AT_EPOCH":39859,"BSTAR":0.00030526741,"MEAN_MOTION_DOT":8.453e-5,"MEAN_MOTION_DDOT":0}]
